{"fetched_at":"2026-03-29T16:36:15Z","count":15609,"tles":[{"name":"STARLINK-4597","line1":"1 53640U 22104BE  26087.86493348  .00000406  00000+0  43606-4 0  9997","line2":"2 53640  53.2166 137.7880 0001291  82.5238 277.5900 15.08845139199124","category":"Starlink"}]}